{"type": "FeatureCollection", "features": [ {"type": "Feature", "properties": {"norad_id": 43648, "name": "BEIDOU-3 M15 (C34)", "group": "gnss", "lat": -11.893748288514026, "lon": -62.503190441719376, "alt_km": 21520.597336948995, "timestamp": "2025-12-20T20:38:44.686463+00:00", "meta": {"OBJECT_NAME": "BEIDOU-3 M15 (C34)", "OBJECT_ID": "2018-078B", "EPOCH": "2025-12-19T06:30:41.361984", "MEAN_MOTION": 1.86232317, "ECCENTRICITY": 0.0003969, "INCLINATION": 54.2518, "RA_OF_ASC_NODE": 306.2933, "ARG_OF_PERICENTER": 20.1104, "MEAN_ANOMALY": 339.8954, "EPHEMERIS_TYPE": 0, "CLASSIFICATION_TYPE": "U", "NORAD_CAT_ID": 43648, "ELEMENT_SET_NO": 999, "REV_AT_EPOCH": 4882, "BSTAR": 0, "MEAN_MOTION_DOT": -7.6e-07, "MEAN_MOTION_DDOT": 0}, "tle": {"line1": "1 43648U 18078B   25353.27131206 -.00000076  00000+0  00000+0 0  9991", "line2": "2 43648  54.2518 306.2933 0003969  20.1104 339.8954  1.86232317 48829"}}, "geometry": {"type": "Point", "coordinates": [-62.503190441719376, -11.893748288514026]}}, {"type": "Feature", "properties": {"norad_id": 43683, "name": "BEIDOU-3 G1 (C59)", "group": "gnss", "lat": 2.557897588956548, "lon": 179.38100264571716, "alt_km": 35780.93138151584, "timestamp": "2025-12-20T20:38:44.686474+00:00", "meta": {"OBJECT_NAME": "BEIDOU-3 G1 (C59)", "OBJECT_ID": "2018-085A", "EPOCH": "2025-12-20T13:53:49.776576", "MEAN_MOTION": 1.0026848, "ECCENTRICITY": 0.00015879, "INCLINATION": 2.6264, "RA_OF_ASC_NODE": 102.7378, "ARG_OF_PERICENTER": 46.8871, "MEAN_ANOMALY": 288.262, "EPHEMERIS_TYPE": 0, "CLASSIFICATION_TYPE": "U", "NORAD_CAT_ID": 43683, "ELEMENT_SET_NO": 999, "REV_AT_EPOCH": 2626, "BSTAR": 0, "MEAN_MOTION_DOT": -2.56e-06, "MEAN_MOTION_DDOT": 0}, "tle": {"line1": "1 43683U 18085A   25354.57904834 -.00000256  00000+0  00000+0 0  9997", "line2": "2 43683   2.6264 102.7378 0001587  46.8871 288.2620  1.00268480 26262"}}, "geometry": {"type": "Point", "coordinates": [179.38100264571716, 2.557897588956548]}}, {"type": "Feature", "properties": {"norad_id": 43687, "name": "COSMOS 2529 (757)", "group": "gnss", "lat": -1.7667243722262396, "lon": -162.23296920581564, "alt_km": 19135.12640589031, "timestamp": "2025-12-20T20:38:44.686486+00:00", "meta": {"OBJECT_NAME": "COSMOS 2529 (757)", "OBJECT_ID": "2018-086A", "EPOCH": "2025-12-18T12:23:46.661856", "MEAN_MOTION": 2.13102105, "ECCENTRICITY": 0.00070461, "INCLINATION": 64.2922, "RA_OF_ASC_NODE": 198.6932, "ARG_OF_PERICENTER": 253.6593, "MEAN_ANOMALY": 106.345, "EPHEMERIS_TYPE": 0, "CLASSIFICATION_TYPE": "U", "NORAD_CAT_ID": 43687, "ELEMENT_SET_NO": 999, "REV_AT_EPOCH": 5543, "BSTAR": 0, "MEAN_MOTION_DOT": 1.09e-06, "MEAN_MOTION_DDOT": 0}, "tle": {"line1": "1 43687U 18086A   25352.51651229  .00000109  00000+0  00000+0 0  9997", "line2": "2 43687  64.2922 198.6932 0007046 253.6593 106.3450  2.13102105 55434"}}, "geometry": {"type": "Point", "coordinates": [-162.23296920581564, -1.7667243722262396]}}, {"type": "Feature", "properties": {"norad_id": 43706, "name": "BEIDOU-3 M17 (C36)", "group": "gnss", "lat": -43.91642316763874, "lon": 52.45677641548597, "alt_km": 21527.27555653085, "timestamp": "2025-12-20T20:38:44.686497+00:00", "meta": {"OBJECT_NAME": "BEIDOU-3 M17 (C36)", "OBJECT_ID": "2018-093A", "EPOCH": "2025-12-20T12:04:20.840736", "MEAN_MOTION": 1.86228485, "ECCENTRICITY": 0.00060883, "INCLINATION": 54.1751, "RA_OF_ASC_NODE": 188.3582, "ARG_OF_PERICENTER": 307.8758, "MEAN_ANOMALY": 51.559, "EPHEMERIS_TYPE": 0, "CLASSIFICATION_TYPE": "U", "NORAD_CAT_ID": 43706, "ELEMENT_SET_NO": 999, "REV_AT_EPOCH": 4820, "BSTAR": 0, "MEAN_MOTION_DOT": 9.7e-07, "MEAN_MOTION_DDOT": 0}, "tle": {"line1": "1 43706U 18093A   25354.50301899  .00000097  00000+0  00000+0 0  9999", "line2": "2 43706  54.1751 188.3582 0006088 307.8758  51.5590  1.86228485 48203"}}, "geometry": {"type": "Point", "coordinates": [52.45677641548597, -43.91642316763874]}}, {"type": "Feature", "properties": {"norad_id": 43707, "name": "BEIDOU-3 M18 (C37)", "group": "gnss", "lat": -22.60064776888943, "lon": 170.83158694701913, "alt_km": 21515.203019709254, "timestamp": "2025-12-20T20:38:44.686510+00:00", "meta": {"OBJECT_NAME": "BEIDOU-3 M18 (C37)", "OBJECT_ID": "2018-093B", "EPOCH": "2025-12-19T19:53:02.312736", "MEAN_MOTION": 1.86226834, "ECCENTRICITY": 0.00062874, "INCLINATION": 54.1737, "RA_OF_ASC_NODE": 188.373, "ARG_OF_PERICENTER": 353.4895, "MEAN_ANOMALY": 6.5612, "EPHEMERIS_TYPE": 0, "CLASSIFICATION_TYPE": "U", "NORAD_CAT_ID": 43707, "ELEMENT_SET_NO": 999, "REV_AT_EPOCH": 4819, "BSTAR": 0, "MEAN_MOTION_DOT": 1e-06, "MEAN_MOTION_DDOT": 0}, "tle": {"line1": "1 43707U 18093B   25353.82849899  .00000100  00000+0  00000+0 0  9996", "line2": "2 43707  54.1737 188.3730 0006287 353.4895   6.5612  1.86226834 48192"}}, "geometry": {"type": "Point", "coordinates": [170.83158694701913, -22.60064776888943]}}, {"type": "Feature", "properties": {"norad_id": 43873, "name": "GPS BIII-1  (PRN 04)", "group": "gnss", "lat": -49.37889084509813, "lon": -27.785499807679898, "alt_km": 20126.304049374714, "timestamp": "2025-12-20T20:38:44.686521+00:00", "meta": {"OBJECT_NAME": "GPS BIII-1  (PRN 04)", "OBJECT_ID": "2018-109A", "EPOCH": "2025-12-20T14:49:36.232608", "MEAN_MOTION": 2.00553966, "ECCENTRICITY": 0.00375746, "INCLINATION": 55.571, "RA_OF_ASC_NODE": 99.2363, "ARG_OF_PERICENTER": 195.36, "MEAN_ANOMALY": 236.122, "EPHEMERIS_TYPE": 0, "CLASSIFICATION_TYPE": "U", "NORAD_CAT_ID": 43873, "ELEMENT_SET_NO": 999, "REV_AT_EPOCH": 5149, "BSTAR": 0, "MEAN_MOTION_DOT": -1.2e-07, "MEAN_MOTION_DDOT": 0}, "tle": {"line1": "1 43873U 18109A   25354.61778047 -.00000012  00000+0  00000+0 0  9995", "line2": "2 43873  55.5710  99.2363 0037574 195.3600 236.1220  2.00553966 51493"}}, "geometry": {"type": "Point", "coordinates": [-27.785499807679898, -49.37889084509813]}}, {"type": "Feature", "properties": {"norad_id": 44231, "name": "BEIDOU-2 G8 (C01)", "group": "gnss", "lat": 1.588216235588097, "lon": -176.21625167488466, "alt_km": 35814.26217069295, "timestamp": "2025-12-20T20:38:44.686534+00:00", "meta": {"OBJECT_NAME": "BEIDOU-2 G8 (C01)", "OBJECT_ID": "2019-027A", "EPOCH": "2025-12-19T12:14:23.449632", "MEAN_MOTION": 1.00276563, "ECCENTRICITY": 0.0008196, "INCLINATION": 1.6785, "RA_OF_ASC_NODE": 74.7229, "ARG_OF_PERICENTER": 258.5641, "MEAN_ANOMALY": 83.1013, "EPHEMERIS_TYPE": 0, "CLASSIFICATION_TYPE": "U", "NORAD_CAT_ID": 44231, "ELEMENT_SET_NO": 999, "REV_AT_EPOCH": 2427, "BSTAR": 0, "MEAN_MOTION_DOT": -2.24e-06, "MEAN_MOTION_DDOT": 0}, "tle": {"line1": "1 44231U 19027A   25353.50999363 -.00000224  00000+0  00000+0 0  9992", "line2": "2 44231   1.6785  74.7229 0008196 258.5641  83.1013  1.00276563 24270"}}, "geometry": {"type": "Point", "coordinates": [-176.21625167488466, 1.588216235588097]}}, {"type": "Feature", "properties": {"norad_id": 44299, "name": "COSMOS 2534 (758)", "group": "gnss", "lat": 41.73966916286479, "lon": -6.756567372265857, "alt_km": 19144.690434531472, "timestamp": "2025-12-20T20:38:44.686546+00:00", "meta": {"OBJECT_NAME": "COSMOS 2534 (758)", "OBJECT_ID": "2019-030A", "EPOCH": "2025-12-18T18:30:09.690336", "MEAN_MOTION": 2.13102412, "ECCENTRICITY": 0.0008748, "INCLINATION": 64.3658, "RA_OF_ASC_NODE": 198.6898, "ARG_OF_PERICENTER": 284.2192, "MEAN_ANOMALY": 45.4012, "EPHEMERIS_TYPE": 0, "CLASSIFICATION_TYPE": "U", "NORAD_CAT_ID": 44299, "ELEMENT_SET_NO": 999, "REV_AT_EPOCH": 5107, "BSTAR": 0, "MEAN_MOTION_DOT": 1.08e-06, "MEAN_MOTION_DDOT": 0}, "tle": {"line1": "1 44299U 19030A   25352.77094549  .00000108  00000+0  00000+0 0  9990", "line2": "2 44299  64.3658 198.6898 0008748 284.2192  45.4012  2.13102412 51071"}}, "geometry": {"type": "Point", "coordinates": [-6.756567372265857, 41.73966916286479]}}, {"type": "Feature", "properties": {"norad_id": 44337, "name": "BEIDOU-3 IGSO-2 (C39)", "group": "gnss", "lat": -1.1774797054505355, "lon": 159.59330073021894, "alt_km": 35932.67851982898, "timestamp": "2025-12-20T20:38:44.686557+00:00", "meta": {"OBJECT_NAME": "BEIDOU-3 IGSO-2 (C39)", "OBJECT_ID": "2019-035A", "EPOCH": "2025-12-20T08:39:57.339648", "MEAN_MOTION": 1.00269066, "ECCENTRICITY": 0.00375855, "INCLINATION": 55.2282, "RA_OF_ASC_NODE": 160.4344, "ARG_OF_PERICENTER": 202.2219, "MEAN_ANOMALY": 335.9377, "EPHEMERIS_TYPE": 0, "CLASSIFICATION_TYPE": "U", "NORAD_CAT_ID": 44337, "ELEMENT_SET_NO": 999, "REV_AT_EPOCH": 2387, "BSTAR": 0, "MEAN_MOTION_DOT": -6.5e-07, "MEAN_MOTION_DDOT": 0}, "tle": {"line1": "1 44337U 19035A   25354.36108032 -.00000065  00000+0  00000+0 0  9991", "line2": "2 44337  55.2282 160.4344 0037585 202.2219 335.9377  1.00269066 23872"}}, "geometry": {"type": "Point", "coordinates": [159.59330073021894, -1.1774797054505355]}}, {"type": "Feature", "properties": {"norad_id": 44506, "name": "GPS BIII-2  (PRN 18)", "group": "gnss", "lat": 29.54223940346163, "lon": 135.478258306047, "alt_km": 20090.53571095012, "timestamp": "2025-12-20T20:38:44.686569+00:00", "meta": {"OBJECT_NAME": "GPS BIII-2  (PRN 18)", "OBJECT_ID": "2019-056A", "EPOCH": "2025-12-20T05:10:31.696032", "MEAN_MOTION": 2.00566646, "ECCENTRICITY": 0.00577304, "INCLINATION": 55.7188, "RA_OF_ASC_NODE": 338.2562, "ARG_OF_PERICENTER": 198.5398, "MEAN_ANOMALY": 199.8804, "EPHEMERIS_TYPE": 0, "CLASSIFICATION_TYPE": "U", "NORAD_CAT_ID": 44506, "ELEMENT_SET_NO": 999, "REV_AT_EPOCH": 4648, "BSTAR": 0, "MEAN_MOTION_DOT": -7.7e-07, "MEAN_MOTION_DDOT": 0}, "tle": {"line1": "1 44506U 19056A   25354.21564463 -.00000077  00000+0  00000+0 0  9993", "line2": "2 44506  55.7188 338.2562 0057730 198.5398 199.8804  2.00566646 46485"}}, "geometry": {"type": "Point", "coordinates": [135.478258306047, 29.54223940346163]}}]}